satNo,name,line1,line2,inclination,apogee,raan,argument_of_perigee,eccentricity,mean_motion,hdbscan_labels
64107,STARLINK-33912,1 64107U 25110M   26026.83598947  .00031773  00000-0  10799-2 0  9995,2 64107  53.1560 221.2303 0001987  88.9883 271.1345 15.30211364 39474,53.156,483.6798930878583,221.2303,88.9883,0.0001987,15.30211364,1795
64108,STARLINK-34156,1 64108U 25110N   26026.89180665  .00037264  00000-0  12639-2 0  9992,2 64108  53.1564 220.8664 0001274  86.7900 273.3246 15.30201112 39484,53.1564,483.2218658204172,220.8664,86.79,0.0001274,15.30201112,-1
64109,STARLINK-34124,1 64109U 25110P   26027.22470976  .00033348  00000-0  11326-2 0  9999,2 64109  53.1525 219.3871 0000807  57.6929 302.4150 15.30212455 39530,53.1525,482.8679437975129,219.3871,57.6929,8.07e-05,15.30212455,1802
64110,STARLINK-34145,1 64110U 25110Q   26027.23526562  .00041959  00000-0  14204-2 0  9990,2 64110  53.1585 219.4534 0001665  79.8142 280.3047 15.30209329 39536,53.1585,483.4652933301721,219.4534,79.8142,0.0001665,15.30209329,1802
64111,STARLINK-34148,1 64111U 25110R   26026.95395693  .00049439  00000-0  16711-2 0  9994,2 64111  53.1557 220.5428 0001794  89.6919 270.4287 15.30183290 39494,53.1557,483.63146323350816,220.5428,89.6919,0.0001794,15.3018329,1794
64112,STARLINK-34136,1 64112U 25110S   26027.22154374  .00033398  00000-0  11342-2 0  9997,2 64112  53.1516 219.3669 0000872  56.4915 303.6169 15.30214839 39534,53.1516,482.9053716350673,219.3669,56.4915,8.72e-05,15.30214839,1801
64113,STARLINK-33839,1 64113U 25110T   26026.88231442  .00055948  00000-0  18845-2 0  9991,2 64113  53.1534 220.8046 0002801  96.4589 263.6731 15.30239004 39481,53.1534,484.1552042747084,220.8046,96.4589,0.0002801,15.30239004,1808
64114,STARLINK-34064,1 64114U 25110U   26027.22893280  .00056461  00000-0  19023-2 0  9995,2 64114  53.1543 219.4149 0001145  76.6031 283.5097 15.30229038 39530,53.1543,483.05006744122693,219.4149,76.6031,0.0001145,15.30229038,1802
64115,STARLINK-34067,1 64115U 25110V   26026.54940096  .00053405  00000-0  18008-2 0  9995,2 64115  53.1545 222.2802 0002203 104.1519 255.9727 15.30227200 39436,53.1545,483.7806318948008,222.2802,104.1519,0.0002203,15.302272,1591
64116,STARLINK-34080,1 64116U 25110W   26026.55256777  .00046486  00000-0  15692-2 0  9990,2 64116  53.1565 222.3022 0001727  76.6852 283.4341 15.30253254 39422,53.1565,483.3766136284415,222.3022,76.6852,0.0001727,15.30253254,1591
64117,STARLINK-34122,1 64117U 25110X   26027.13407126  .00022456  00000-0  76755-3 0  9991,2 64117  53.1551 219.5338 0001509  77.7148 282.4022 15.30220084 39525,53.1551,483.3262646496985,219.5338,77.7148,0.0001509,15.30220084,1803
64118,STARLINK-33964,1 64118U 25110Y   26026.95078763  .00047422  00000-0  16034-2 0  9995,2 64118  53.1519 220.5214 0001435 122.7807 237.3332 15.30191923 39494,53.1519,483.3596454742039,220.5214,122.7807,0.0001435,15.30191923,1794
64119,STARLINK-34160,1 64119U 25110Z   26027.26153202  .00034143  00000-0  11595-2 0  9996,2 64119  53.1619 218.9064 0001241  78.3105 281.8035 15.30202472 39544,53.1619,483.19518855868,218.9064,78.3105,0.0001241,15.30202472,-1
64120,STARLINK-34151,1 64120U 25110AA  26026.92557860  .00034332  00000-0  11666-2 0  9997,2 64120  53.1547 221.0715 0002059  76.4390 283.6840 15.30180555 39481,53.1547,483.82124644478967,221.0715,76.439,0.0002059,15.30180555,1805
64121,STARLINK-34189,1 64121U 25110AB  26027.24898921  .00038735  00000-0  13135-2 0  9994,2 64121  53.1545 219.5335 0003022  84.3354 275.7992 15.30188433 39538,53.1545,484.45770004643316,219.5335,84.3354,0.0003022,15.30188433,1803
64122,STARLINK-33991,1 64122U 25110AC  26026.93073883  .00056020  00000-0  18896-2 0  9998,2 64122  53.1574 220.3941 0001477  91.1282 268.9888 15.30194922 39484,53.1574,483.37947379402164,220.3941,91.1282,0.0001477,15.30194922,-1
64123,STARLINK-11727,1 64123U 25111A   26026.58570671  .00242971  00000-0  18416-2 0  9998,2 64123  42.9986 227.9643 0001332 276.8262  83.2454 15.70847647 40011,42.9986,364.50725517938656,227.9643,276.8262,0.0001332,15.70847647,888
64124,STARLINK-11724,1 64124U 25111B   26027.25326650  .00323455  00000-0  24118-2 0  9993,2 64124  42.9990 223.4900 0000909 310.9504  49.1285 15.70993379 40121,42.999,363.8058495569639,223.49,310.9504,9.09e-05,15.70993379,983
64125,STARLINK-11725,1 64125U 25111C   26026.95127174  .00285314  00000-0  21428-2 0  9992,2 64125  43.0004 225.5346 0003500 270.6028  89.4439 15.70935136 40079,43.0004,365.71718485397196,225.5346,270.6028,0.00035,15.70935136,925
64126,STARLINK-11717,1 64126U 25111D   26026.57508622  .00249157  00000-0  18840-2 0  9991,2 64126  42.9989 227.8748 0002137 260.6317  99.4309 15.70885212 39968,42.9989,364.94200356733796,227.8748,260.6317,0.0002137,15.70885212,888
64127,STARLINK-11721,1 64127U 25111E   26026.60150390  .00434719  00000-0  31871-2 0  9990,2 64127  42.9996 227.1936 0002701 252.4309 107.6264 15.71065508 40026,42.9996,364.80644464782625,227.1936,252.4309,0.0002701,15.71065508,888
64128,STARLINK-11722,1 64128U 25111F   26026.87707515  .00383069  00000-0  28422-2 0  9996,2 64128  43.0002 225.8307 0002595 291.2256  68.8334 15.70934248 40017,43.0002,365.11026373337955,225.8307,291.2256,0.0002595,15.70934248,925
64129,STARLINK-11679,1 64129U 25111G   26027.24265060  .00265725  00000-0  20027-2 0  9994,2 64129  42.9994 223.4025 0000966 322.0579  38.0220 15.70912352 40125,42.9994,364.0758194301976,223.4025,322.0579,9.66e-05,15.70912352,983
64130,STARLINK-11735,1 64130U 25111H   26026.56446602  .00460534  00000-0  33640-2 0  9993,2 64130  42.9992 227.7883 0002977 256.4662 103.5874 15.71076539 39862,42.9992,364.9607723858543,227.7883,256.4662,0.0002977,15.71076539,888
64131,STARLINK-11720,1 64131U 25111J   26027.24795869  .00264002  00000-0  19910-2 0  9998,2 64131  42.9999 223.4445 0001067 302.9144  57.1621 15.70902607 40070,42.9999,364.1716911369264,223.4445,302.9144,0.0001067,15.70902607,983
64132,STARLINK-11718,1 64132U 25111K   26026.90452907  .00209515  00000-0  15903-2 0  9990,2 64132  42.9996 226.0482 0002693 270.6828  89.3731 15.70915704 40110,42.9996,365.2292722042613,226.0482,270.6828,0.0002693,15.70915704,925
64133,STARLINK-11716,1 64133U 25111L   26026.89831490  .00333862  00000-0  24958-2 0  9990,2 64133  42.9999 225.9981 0001615 276.9439  83.1245 15.70901877 40114,42.9999,364.54282584396003,225.9981,276.9439,0.0001615,15.70901877,925
64134,STARLINK-11714,1 64134U 25111M   26027.23203151  .00353816  00000-0  26356-2 0  9992,2 64134  42.9993 223.3163 0000909 316.2092  43.8703 15.70925935 40125,42.9993,363.9986101811286,223.3163,316.2092,9.09e-05,15.70925935,983
64135,STARLINK-11712,1 64135U 25111N   26026.90892689  .00245773  00000-0  18577-2 0  9994,2 64135  42.9985 226.0850 0001797 248.2478 111.8199 15.70905359 40064,42.9985,364.65543960457484,226.085,248.2478,0.0001797,15.70905359,925
64136,STARLINK-34254,1 64136U 25111P   26026.82041034  .00032758  00000-0  11930-2 0  9999,2 64136  43.0022 314.0145 0001965 271.7644  88.2983 15.27623679 39067,43.0022,491.403505884734,314.0145,271.7644,0.0001965,15.27623679,1078
64137,STARLINK-34230,1 64137U 25111Q   26026.95157203  .00110011  00000-0  29627-2 0  9991,2 64137  42.9983 311.5462 0008391 195.2587 164.8016 15.36712558 39100,42.9983,468.70984040181526,311.5462,195.2587,0.0008391,15.36712558,783
64138,STARLINK-34129,1 64138U 25111R   26026.86026586  .00031141  00000-0  11366-2 0  9998,2 64138  43.0015 314.3161 0001455 256.0289 104.0401 15.27574042 39114,43.0015,491.202241665774,314.3161,256.0289,0.0001455,15.27574042,-1
64139,STARLINK-34212,1 64139U 25111S   26026.83070391  .00035881  00000-0  13076-2 0  9994,2 64139  42.9996 314.0906 0001008 327.5718  32.5072 15.27567063 39068,42.9996,490.91644580840784,314.0906,327.5718,0.0001008,15.27567063,1078
64140,STARLINK-34149,1 64140U 25111T   26026.84098579  .00029147  00000-0  10650-2 0  9998,2 64140  43.0037 314.1682 0001134 247.3294 112.7438 15.27563984 39063,43.0037,491.0121180661302,314.1682,247.3294,0.0001134,15.27563984,1077
64141,STARLINK-34054,1 64141U 25111U   26026.96919789  .00038906  00000-0  14151-2 0  9990,2 64141  43.0021 313.4103 0001228 255.3651 104.7065 15.27597973 39081,43.0021,490.9748259834126,313.4103,255.3651,0.0001228,15.27597973,735
64142,STARLINK-34195,1 64142U 25111V   26026.82685313  .00012414  00000-0  45992-3 0  9993,2 64142  43.0026 314.0606 0001856 273.1997  86.8643 15.27575992 39067,43.0026,491.47153582665044,314.0606,273.1997,0.0001856,15.27575992,1078
64143,STARLINK-34133,1 64143U 25111W   26025.84219232  .00054877  00000-0  19856-2 0  9996,2 64143  43.0031 319.5694 0001889 267.6055  92.4580 15.27634078 38917,43.0031,491.3202192961518,319.5694,267.6055,0.0001889,15.27634078,910
64144,STARLINK-34181,1 64144U 25111X   26026.97561676  .00057074  00000-0  20675-2 0  9997,2 64144  43.0024 313.4588 0001703 278.9674  81.0985 15.27580984 39080,43.0024,491.35160908161384,313.4588,278.9674,0.0001703,15.27580984,735
64145,STARLINK-34186,1 64145U 25111Y   26026.78845151  .00038537  00000-0  14016-2 0  9995,2 64145  43.0063 314.6378 0001156 288.9854  71.0872 15.27603887 39056,43.0063,490.907715544763,314.6378,288.9854,0.0001156,15.27603887,824
64146,STARLINK-34314,1 64146U 25112A   26027.13241920  .00006361  00000-0  44480-3 0  9990,2 64146  97.6041  80.5250 0001563  88.9821 271.1585 15.05640218 37057,97.6041,557.7609556130907,80.525,88.9821,0.0001563,15.05640218,348
64147,STARLINK-33926,1 64147U 25112B   26027.10750001  .00013005  00000-0  90350-3 0  9993,2 64147  97.6021  80.5605 0000287  13.6564 346.4671 15.05663945 37055,97.6021,556.8042017386676,80.5605,13.6564,2.87e-05,15.05663945,348
64148,STARLINK-34213,1 64148U 25112C   26027.14072751  .00007538  00000-0  52602-3 0  9999,2 64148  97.6058  80.5151 0002056  85.3748 274.7713 15.05652778 37050,97.6058,558.0639555211319,80.5151,85.3748,0.0002056,15.05652778,348
